[{"CCSDS_OMM_VERS":"2.0","COMMENT":"GENERATED VIA SPACE-TRACK.ORG API","CREATION_DATE":"2020-04-28T17:21:57","ORIGINATOR":"18 SPCS","OBJECT_NAME":"ONEWEB-0007","OBJECT_ID":"2019-010D","CENTER_NAME":"EARTH","REF_FRAME":"TEME","TIME_SYSTEM":"UTC","MEAN_ELEMENT_THEORY":"SGP4","EPOCH":"2020-04-28T06:00:00.999648","MEAN_MOTION":"13.21836780","ECCENTRICITY":"0.00020900","INCLINATION":"87.9204","RA_OF_ASC_NODE":"344.4168","ARG_OF_PERICENTER":"87.0526","MEAN_ANOMALY":"342.8872","EPHEMERIS_TYPE":"0","CLASSIFICATION_TYPE":"U","NORAD_CAT_ID":"44060","ELEMENT_SET_NO":"999","REV_AT_EPOCH":"176","BSTAR":"-0.10813000000000","MEAN_MOTION_DOT":"-0.00044434","MEAN_MOTION_DDOT":"0.0000000000000","SEMIMAJOR_AXIS":"7555.849","PERIOD":"108.939","APOAPSIS":"1179.293","PERIAPSIS":"1176.135","OBJECT_TYPE":"PAYLOAD","RCS_SIZE":"LARGE","COUNTRY_CODE":"UK","LAUNCH_DATE":"2019-02-27","SITE":"FRGUI","DECAY_DATE":null,"FILE":"2740780","GP_ID":"153051469","TLE_LINE0":"0 ONEWEB-0007","TLE_LINE1":"1 44060U 19010D   20119.25001157 -.00044434 +00000-0 -10813+0 0  9992","TLE_LINE2":"2 44060 087.9204 344.4168 0002090 087.0526 342.8872 13.21836780001762"},{"CCSDS_OMM_VERS":"2.0","COMMENT":"GENERATED VIA SPACE-TRACK.ORG API","CREATION_DATE":"2020-04-28T22:16:09","ORIGINATOR":"18 SPCS","OBJECT_NAME":"ONEWEB-0007","OBJECT_ID":"2019-010D","CENTER_NAME":"EARTH","REF_FRAME":"TEME","TIME_SYSTEM":"UTC","MEAN_ELEMENT_THEORY":"SGP4","EPOCH":"2020-04-28T22:00:01.999584","MEAN_MOTION":"13.21802519","ECCENTRICITY":"0.00020140","INCLINATION":"87.9207","RA_OF_ASC_NODE":"344.2832","ARG_OF_PERICENTER":"86.9474","MEAN_ANOMALY":"273.5939","EPHEMERIS_TYPE":"0","CLASSIFICATION_TYPE":"U","NORAD_CAT_ID":"44060","ELEMENT_SET_NO":"999","REV_AT_EPOCH":"5651","BSTAR":"0.04422000000000","MEAN_MOTION_DOT":"0.00018307","MEAN_MOTION_DDOT":"0.0000000000000","SEMIMAJOR_AXIS":"7555.979","PERIOD":"108.942","APOAPSIS":"1179.366","PERIAPSIS":"1176.323","OBJECT_TYPE":"PAYLOAD","RCS_SIZE":"LARGE","COUNTRY_CODE":"UK","LAUNCH_DATE":"2019-02-27","SITE":"FRGUI","DECAY_DATE":null,"FILE":"2740801","GP_ID":"153052897","TLE_LINE0":"0 ONEWEB-0007","TLE_LINE1":"1 44060U 19010D   20119.91668981  .00018307  00000-0  44220-1 0  9998","TLE_LINE2":"2 44060  87.9207 344.2832 0002014  86.9474 273.5939 13.21802519 56517"},{"CCSDS_OMM_VERS":"2.0","COMMENT":"GENERATED VIA SPACE-TRACK.ORG API","CREATION_DATE":"2020-04-29T17:42:05","ORIGINATOR":"18 SPCS","OBJECT_NAME":"ONEWEB-0007","OBJECT_ID":"2019-010D","CENTER_NAME":"EARTH","REF_FRAME":"TEME","TIME_SYSTEM":"UTC","MEAN_ELEMENT_THEORY":"SGP4","EPOCH":"2020-04-29T06:00:00.999648","MEAN_MOTION":"13.21839832","ECCENTRICITY":"0.00020900","INCLINATION":"87.9209","RA_OF_ASC_NODE":"344.2170","ARG_OF_PERICENTER":"86.9025","MEAN_ANOMALY":"58.8375","EPHEMERIS_TYPE":"0","CLASSIFICATION_TYPE":"U","NORAD_CAT_ID":"44060","ELEMENT_SET_NO":"999","REV_AT_EPOCH":"172","BSTAR":"-0.11420000000000","MEAN_MOTION_DOT":"-0.00046918","MEAN_MOTION_DDOT":"0.0000000000000","SEMIMAJOR_AXIS":"7555.837","PERIOD":"108.939","APOAPSIS":"1179.281","PERIAPSIS":"1176.123","OBJECT_TYPE":"PAYLOAD","RCS_SIZE":"LARGE","COUNTRY_CODE":"UK","LAUNCH_DATE":"2019-02-27","SITE":"FRGUI","DECAY_DATE":null,"FILE":"2741376","GP_ID":"153104236","TLE_LINE0":"0 ONEWEB-0007","TLE_LINE1":"1 44060U 19010D   20120.25001157 -.00046918 +00000-0 -11420+0 0  9998","TLE_LINE2":"2 44060 087.9209 344.2170 0002090 086.9025 058.8375 13.21839832001729"},{"CCSDS_OMM_VERS":"2.0","COMMENT":"GENERATED VIA SPACE-TRACK.ORG API","CREATION_DATE":"2020-04-29T22:16:09","ORIGINATOR":"18 SPCS","OBJECT_NAME":"ONEWEB-0007","OBJECT_ID":"2019-010D","CENTER_NAME":"EARTH","REF_FRAME":"TEME","TIME_SYSTEM":"UTC","MEAN_ELEMENT_THEORY":"SGP4","EPOCH":"2020-04-29T22:00:00.999936","MEAN_MOTION":"13.21803383","ECCENTRICITY":"0.00020000","INCLINATION":"87.9211","RA_OF_ASC_NODE":"344.0835","ARG_OF_PERICENTER":"86.8864","MEAN_ANOMALY":"349.4045","EPHEMERIS_TYPE":"0","CLASSIFICATION_TYPE":"U","NORAD_CAT_ID":"44060","ELEMENT_SET_NO":"999","REV_AT_EPOCH":"5664","BSTAR":"0.04441100000000","MEAN_MOTION_DOT":"0.00018386","MEAN_MOTION_DDOT":"0.0000000000000","SEMIMAJOR_AXIS":"7555.976","PERIOD":"108.942","APOAPSIS":"1179.352","PERIAPSIS":"1176.330","OBJECT_TYPE":"PAYLOAD","RCS_SIZE":"LARGE","COUNTRY_CODE":"UK","LAUNCH_DATE":"2019-02-27","SITE":"FRGUI","DECAY_DATE":null,"FILE":"2741442","GP_ID":"153105636","TLE_LINE0":"0 ONEWEB-0007","TLE_LINE1":"1 44060U 19010D   20120.91667824  .00018386  00000-0  44411-1 0  9994","TLE_LINE2":"2 44060  87.9211 344.0835 0002000  86.8864 349.4045 13.21803383 56645"},{"CCSDS_OMM_VERS":"2.0","COMMENT":"GENERATED VIA SPACE-TRACK.ORG API","CREATION_DATE":"2020-04-30T17:34:29","ORIGINATOR":"18 SPCS","OBJECT_NAME":"ONEWEB-0007","OBJECT_ID":"2019-010D","CENTER_NAME":"EARTH","REF_FRAME":"TEME","TIME_SYSTEM":"UTC","MEAN_ELEMENT_THEORY":"SGP4","EPOCH":"2020-04-30T04:00:00.999936","MEAN_MOTION":"13.21832979","ECCENTRICITY":"0.00020660","INCLINATION":"87.9212","RA_OF_ASC_NODE":"344.0337","ARG_OF_PERICENTER":"86.5629","MEAN_ANOMALY":"98.6658","EPHEMERIS_TYPE":"0","CLASSIFICATION_TYPE":"U","NORAD_CAT_ID":"44060","ELEMENT_SET_NO":"999","REV_AT_EPOCH":"180","BSTAR":"-0.05979200000000","MEAN_MOTION_DOT":"-0.00024617","MEAN_MOTION_DDOT":"0.0000000000000","SEMIMAJOR_AXIS":"7555.863","PERIOD":"108.939","APOAPSIS":"1179.289","PERIAPSIS":"1176.167","OBJECT_TYPE":"PAYLOAD","RCS_SIZE":"LARGE","COUNTRY_CODE":"UK","LAUNCH_DATE":"2019-02-27","SITE":"FRGUI","DECAY_DATE":null,"FILE":"2741876","GP_ID":"153154494","TLE_LINE0":"0 ONEWEB-0007","TLE_LINE1":"1 44060U 19010D   20121.16667824 -.00024617 +00000-0 -59792-1 0  9996","TLE_LINE2":"2 44060 087.9212 344.0337 0002066 086.5629 098.6658 13.21832979001805"},{"CCSDS_OMM_VERS":"2.0","COMMENT":"GENERATED VIA SPACE-TRACK.ORG API","CREATION_DATE":"2020-04-30T23:16:09","ORIGINATOR":"18 SPCS","OBJECT_NAME":"ONEWEB-0007","OBJECT_ID":"2019-010D","CENTER_NAME":"EARTH","REF_FRAME":"TEME","TIME_SYSTEM":"UTC","MEAN_ELEMENT_THEORY":"SGP4","EPOCH":"2020-04-30T22:00:01.999584","MEAN_MOTION":"13.21802434","ECCENTRICITY":"0.00019960","INCLINATION":"87.9211","RA_OF_ASC_NODE":"343.8838","ARG_OF_PERICENTER":"86.5497","MEAN_ANOMALY":"65.6027","EPHEMERIS_TYPE":"0","CLASSIFICATION_TYPE":"U","NORAD_CAT_ID":"44060","ELEMENT_SET_NO":"999","REV_AT_EPOCH":"5677","BSTAR":"0.04413900000000","MEAN_MOTION_DOT":"0.00018273","MEAN_MOTION_DDOT":"0.0000000000000","SEMIMAJOR_AXIS":"7555.980","PERIOD":"108.942","APOAPSIS":"1179.353","PERIAPSIS":"1176.337","OBJECT_TYPE":"PAYLOAD","RCS_SIZE":"LARGE","COUNTRY_CODE":"UK","LAUNCH_DATE":"2019-02-27","SITE":"FRGUI","DECAY_DATE":null,"FILE":"2741890","GP_ID":"153155961","TLE_LINE0":"0 ONEWEB-0007","TLE_LINE1":"1 44060U 19010D   20121.91668981  .00018273  00000-0  44139-1 0  9992","TLE_LINE2":"2 44060  87.9211 343.8838 0001996  86.5497  65.6027 13.21802434 56774"},{"CCSDS_OMM_VERS":"2.0","COMMENT":"GENERATED VIA SPACE-TRACK.ORG API","CREATION_DATE":"2020-05-01T20:27:47","ORIGINATOR":"18 SPCS","OBJECT_NAME":"ONEWEB-0007","OBJECT_ID":"2019-010D","CENTER_NAME":"EARTH","REF_FRAME":"TEME","TIME_SYSTEM":"UTC","MEAN_ELEMENT_THEORY":"SGP4","EPOCH":"2020-05-01T06:00:00.999648","MEAN_MOTION":"13.21837265","ECCENTRICITY":"0.00020780","INCLINATION":"87.9210","RA_OF_ASC_NODE":"343.8177","ARG_OF_PERICENTER":"86.8629","MEAN_ANOMALY":"210.4893","EPHEMERIS_TYPE":"0","CLASSIFICATION_TYPE":"U","NORAD_CAT_ID":"44060","ELEMENT_SET_NO":"999","REV_AT_EPOCH":"172","BSTAR":"-0.10927000000000","MEAN_MOTION_DOT":"-0.00044900","MEAN_MOTION_DDOT":"0.0000000000000","SEMIMAJOR_AXIS":"7555.847","PERIOD":"108.939","APOAPSIS":"1179.282","PERIAPSIS":"1176.142","OBJECT_TYPE":"PAYLOAD","RCS_SIZE":"LARGE","COUNTRY_CODE":"UK","LAUNCH_DATE":"2019-02-27","SITE":"FRGUI","DECAY_DATE":null,"FILE":"2742433","GP_ID":"153207517","TLE_LINE0":"0 ONEWEB-0007","TLE_LINE1":"1 44060U 19010D   20122.25001157 -.00044900 +00000-0 -10927+0 0  9990","TLE_LINE2":"2 44060 087.9210 343.8177 0002078 086.8629 210.4893 13.21837265001727"},{"CCSDS_OMM_VERS":"2.0","COMMENT":"GENERATED VIA SPACE-TRACK.ORG API","CREATION_DATE":"2020-05-01T22:16:08","ORIGINATOR":"18 SPCS","OBJECT_NAME":"ONEWEB-0007","OBJECT_ID":"2019-010D","CENTER_NAME":"EARTH","REF_FRAME":"TEME","TIME_SYSTEM":"UTC","MEAN_ELEMENT_THEORY":"SGP4","EPOCH":"2020-05-01T22:00:00.999936","MEAN_MOTION":"13.21799727","ECCENTRICITY":"0.00020140","INCLINATION":"87.9208","RA_OF_ASC_NODE":"343.6842","ARG_OF_PERICENTER":"86.3764","MEAN_ANOMALY":"141.5229","EPHEMERIS_TYPE":"0","CLASSIFICATION_TYPE":"U","NORAD_CAT_ID":"44060","ELEMENT_SET_NO":"999","REV_AT_EPOCH":"5690","BSTAR":"0.04852600000000","MEAN_MOTION_DOT":"0.00020091","MEAN_MOTION_DDOT":"0.0000000000000","SEMIMAJOR_AXIS":"7555.990","PERIOD":"108.942","APOAPSIS":"1179.377","PERIAPSIS":"1176.333","OBJECT_TYPE":"PAYLOAD","RCS_SIZE":"LARGE","COUNTRY_CODE":"UK","LAUNCH_DATE":"2019-02-27","SITE":"FRGUI","DECAY_DATE":null,"FILE":"2742440","GP_ID":"153208920","TLE_LINE0":"0 ONEWEB-0007","TLE_LINE1":"1 44060U 19010D   20122.91667824  .00020091  00000-0  48526-1 0  9993","TLE_LINE2":"2 44060  87.9208 343.6842 0002014  86.3764 141.5229 13.21799727 56903"}]